ONEWEB-0029             
1 45445U 20020X   24362.42435157  .00000582  00000+0  16051-2 0  9993
2 45445  87.8905 128.0267 0001444  96.2356 263.8936 13.11418294232302
ONEWEB-0068             
1 45446U 20020Y   24362.40171641 -.00000126  00000+0 -39536-3 0  9997
2 45446  87.8909 128.0178 0001394  97.3328 262.7958 13.10866898232244
ONEWEB-0046             
1 45447U 20020Z   24362.39721792 -.00000273  00000+0 -80560-3 0  9990
2 45447  87.8907 128.0295 0001706  93.6391 266.4932 13.11418828232250
ONEWEB-0063             
1 45448U 20020AA  24362.80751968  .00000526  00000+0  14469-2 0  9998
2 45448  87.8907 127.9474 0001829 101.8536 258.2797 13.11417730232391
ONEWEB-0019             
1 45449U 20020AB  24362.40058928 -.00000484  00000+0 -14011-2 0  9999
2 45449  87.8911 128.0391 0001591 108.5576 251.5724 13.11418596232185
ONEWEB-0094             
1 45450U 20020AC  24363.02005374  .00000017  00000+0  11306-4 0  9993
2 45450  87.9105 112.6558 0001648 100.9667 259.1650 13.17651066235707
ONEWEB-0087             
1 45451U 20020AD  24362.81755741  .00000383  00000+0  10455-2 0  9998
2 45451  87.8899 127.9083 0001407  93.5046 266.6243 13.11416890232290
ONEWEB-0082             
1 45452U 20020AE  24362.58543243  .00000444  00000+0  12172-2 0  9991
2 45452  87.8904 127.9674 0001384 103.4340 256.6943 13.11415604232340
ONEWEB-0050             
1 45453U 20020AF  24363.00223850  .00006979  00000+0  67271-3 0  9999
2 45453  88.0016 338.9742 0005566  95.4262 264.7603 14.92792615260509
ONEWEB-0034             
1 45454U 20020AG  24362.76004351 -.00000405  00000+0 -11779-2 0  9996
2 45454  87.8907 127.9523 0001512 103.3414 256.7883 13.11416259232297
ONEWEB-0060             
1 45455U 20020AH  24362.87889137  .00000508  00000+0  13983-2 0  9993
2 45455  87.8909 127.9501 0001678 100.0288 260.1029 13.11418290232267
ONEWEB-0086             
1 45456U 20020AJ  24362.86176172 -.00000347  00000+0 -10147-2 0  9993
2 45456  87.8904 127.9315 0001292  88.7002 271.4274 13.11418196232312
ONEWEB-0088             
1 45457U 20020AK  24362.61084266 -.00000423  00000+0 -12307-2 0  9994
2 45457  87.8897 127.9380 0001524  98.0817 262.0484 13.11418211232229
ONEWEB-0102             
1 47258U 20100A   24362.50136695  .00000354  00000+0  94888-3 0  9992
2 47258  87.8887  97.5535 0001751 110.6045 249.5271 13.12441061194332
ONEWEB-0109             
1 47259U 20100B   24362.66194918  .00000201  00000+0  52353-3 0  9994
2 47259  87.8890  97.4883 0001664 110.7019 249.4288 13.12442482194185
ONEWEB-0110             
1 47260U 20100C   24362.99283714 -.00000388  00000+0 -11134-2 0  9994
2 47260  87.8881  97.4164 0001579 108.9189 251.2111 13.12441385194391
ONEWEB-0111             
1 47261U 20100D   24363.02367945  .00007375  00000+0  20459-1 0  9999
2 47261  87.8883  97.4161 0002091 114.5470 245.5876 13.12407294194235
ONEWEB-0114             
1 47262U 20100E   24362.67329960 -.00000269  00000+0 -78197-3 0  9996
2 47262  87.8881  97.4933 0001951 115.7086 244.4244 13.12440863194147
ONEWEB-0117             
1 47263U 20100F   24362.97014333  .00000124  00000+0  31008-3 0  9993
2 47263  87.8886  97.4180 0001651 105.3705 254.7606 13.12443316194194
ONEWEB-0118             
1 47264U 20100G   24362.31643900 -.00000043  00000+0 -15542-3 0  9997
2 47264  87.8887  97.5506 0002087 107.2309 252.9048 13.12442353194307
ONEWEB-0119             
1 47265U 20100H   24362.34402667  .00000448  00000+0  12113-2 0  9991
2 47265  87.8886  97.5841 0001651 107.2963 252.8347 13.12441081194286
ONEWEB-0120             
1 47266U 20100J   24362.51933878 -.00000599  00000+0 -17003-2 0  9996
2 47266  87.8888  97.5412 0001836 111.6504 248.4820 13.12442324194332
ONEWEB-0121             
1 47267U 20100K   24362.50785332  .00000211  00000+0  54987-3 0  9998
2 47267  87.8882  97.5245 0001557 106.3694 253.7605 13.12440802194241
ONEWEB-0122             
1 47268U 20100L   24362.50284435  .00000342  00000+0  91521-3 0  9997
2 47268  87.8883  97.5306 0001600 111.3645 248.7654 13.12444771194159
ONEWEB-0123             
1 47269U 20100M   24362.57434656  .00000390  00000+0  10481-2 0  9995
2 47269  87.8887  97.5369 0001753 105.9905 254.1417 13.12445253194301
ONEWEB-0124             
1 47270U 20100N   24363.02041976  .00000276  00000+0  73276-3 0  9992
2 47270  87.8884  97.4450 0001560 100.0978 260.0327 13.12445915194246
ONEWEB-0125             
1 47271U 20100P   24362.99771429 -.00000323  00000+0 -93329-3 0  9997
2 47271  87.8887  97.4107 0001812  96.1090 264.0245 13.12445167194308
ONEWEB-0126             
1 47272U 20100Q   24362.56543039  .00000416  00000+0  11213-2 0  9997
2 47272  87.8882  97.4955 0001767 109.4033 250.7286 13.12446033194310
ONEWEB-0127             
1 47273U 20100R   24362.98472965 -.00000257  00000+0 -74974-3 0  9992
2 47273  87.8887  97.4469 0001693 112.2540 247.8768 13.12444939194392
ONEWEB-0128             
1 47274U 20100S   24362.70248984 -.00000360  00000+0 -10367-2 0  9995
2 47274  87.8892  97.5185 0001438 112.2260 247.9021 13.12444008194379
ONEWEB-0129             
1 47275U 20100T   24362.98636082 -.00000330  00000+0 -95145-3 0  9991
2 47275  87.8885  97.4167 0002633 130.5216 229.6142 13.12444002194345
ONEWEB-0130             
1 47276U 20100U   24362.32778610  .00000289  00000+0  76764-3 0  9991
2 47276  87.8884  97.5525 0001591 109.3431 250.7870 13.12441128194225
ONEWEB-0131             
1 47277U 20100V   24363.01068222 -.00000213  00000+0 -62842-3 0  9991
2 47277  87.8887  97.4368 0001557 108.3884 251.7414 13.12444917194354
ONEWEB-0132             
1 47278U 20100W   24362.65870785  .00000253  00000+0  66882-3 0  9996
2 47278  87.8890  97.5088 0001553  98.2321 261.8984 13.12441151194203
ONEWEB-0133             
1 47279U 20100X   24362.97987550 -.00000173  00000+0 -51586-3 0  9999
2 47279  87.8882  97.4325 0001558 106.7186 253.4113 13.12442720194403
ONEWEB-0134             
1 47280U 20100Y   24362.72035546  .00000481  00000+0  13029-2 0  9992
2 47280  87.8879  97.4699 0001562 115.3543 244.7748 13.12443724194348
ONEWEB-0135             
1 47281U 20100Z   24362.53867335 -.00000314  00000+0 -90717-3 0  9998
2 47281  87.8888  97.5332 0001291 120.1889 239.9367 13.12445654194347
ONEWEB-0136             
1 47282U 20100AA  24362.71061647  .00000277  00000+0  73487-3 0  9992
2 47282  87.8883  97.4659 0001585 123.0618 237.0663 13.12444802194298
ONEWEB-0137             
1 47283U 20100AB  24362.51596029 -.00000082  00000+0 -26345-3 0  9995
2 47283  87.8881  97.5207 0001834 105.9292 254.2039 13.12442784194173
ONEWEB-0138             
1 47284U 20100AC  24362.57111631  .00000472  00000+0  12757-2 0  9996
2 47284  87.8882  97.5219 0001676 111.0236 249.1072 13.12441610194265
ONEWEB-0139             
1 47285U 20100AD  24362.68642013 -.00000407  00000+0 -11660-2 0  9994
2 47285  87.8888  97.4791 0001686 107.0013 253.1300 13.12443643194352
ONEWEB-0140             
1 47286U 20100AE  24363.02203940  .00000374  00000+0  10040-2 0  9998
2 47286  87.8879  97.4081 0001650 110.2971 249.8335 13.12446713194356
ONEWEB-0141             
1 47287U 20100AF  24362.68612807 -.00000446  00000+0 -12746-2 0  9993
2 47287  87.8882  97.4895 0001827 103.1924 256.9409 13.12441168194304
ONEWEB-0142             
1 47288U 20100AG  24362.50217645  .00000340  00000+0  90965-3 0  9997
2 47288  87.8885  97.5071 0001932 110.4354 249.6982 13.12443534194270
ONEWEB-0143             
1 47289U 20100AH  24362.83713297 -.00000468  00000+0 -13366-2 0  9990
2 47289  87.8884  97.4628 0001683 106.2996 253.8318 13.12443453194297
ONEWEB-0144             
1 47290U 20100AJ  24362.50459827  .00000283  00000+0  75017-3 0  9997
2 47290  87.8886  97.5116 0001858 116.6204 243.5115 13.12444854194179
ONEWEB-0145             
1 47291U 20100AK  24362.70410867 -.00000284  00000+0 -82526-3 0  9997
2 47291  87.8883  97.4966 0001712 111.2602 248.8709 13.12443562194397
ONEWEB-0146             
1 47292U 20100AL  24362.70086497 -.00000408  00000+0 -11695-2 0  9992
2 47292  87.8886  97.4824 0001456  93.2052 266.9243 13.12443745194305
ONEWEB-0147             
1 47293U 20100AM  24362.66681220 -.00000021  00000+0 -94044-4 0  9995
2 47293  87.8883  97.4760 0001520 116.3919 243.7365 13.12439865194196
ONEWEB-0115             
1 48042U 21025A   24363.11366750  .00000244  00000+0  63242-3 0  9994
2 48042  87.8910  66.8386 0001733  99.9757 260.1568 13.13470154183234
ONEWEB-0152             
1 48043U 21025B   24362.89781692 -.00000108  00000+0 -33142-3 0  9992
2 48043  87.8916  66.8867 0001648 102.5131 257.6182 13.13469010183161
ONEWEB-0153             
1 48044U 21025C   24362.95178867  .00000337  00000+0  88822-3 0  9991
2 48044  87.8918  66.8691 0001818 103.2502 256.8830 13.13468471183169
ONEWEB-0154             
1 48045U 21025D   24362.41537022  .00000312  00000+0  81853-3 0  9995
2 48045  87.8918  66.9814 0001700 102.6461 257.4858 13.13468558183045
ONEWEB-0116             
1 48046U 21025E   24362.45662324 -.00000400  00000+0 -11294-2 0  9995
2 48046  87.8918  66.9479 0001637  98.7791 261.3524 13.13469953183193
ONEWEB-0150             
1 48047U 21025F   24362.88830337  .00000077  00000+0  17455-3 0  9998
2 48047  87.8912  66.8695 0001978 101.6984 258.4367 13.13468298183141
ONEWEB-0107             
1 48048U 21025G   24362.66135343 -.00000092  00000+0 -28551-3 0  9998
2 48048  87.8914  66.9119 0002064 114.1026 246.0319 13.13470586183096
ONEWEB-0101             
1 48049U 21025H   24362.92955672 -.00000148  00000+0 -43974-3 0  9991
2 48049  87.8915  66.8867 0001775 107.4446 252.6878 13.13470280183102
ONEWEB-0113             
1 48050U 21025J   24362.90734095 -.00000464  00000+0 -13044-2 0  9990
2 48050  87.8919  66.8716 0001691  99.3210 260.8111 13.13469423183182
ONEWEB-0112             
1 48051U 21025K   24363.12319078 -.00000038  00000+0 -13812-3 0  9997
2 48051  87.8912  66.8176 0001825 101.1382 258.9952 13.13470761183231
